NORAD_CAT_ID,OBJECT_NAME,OBJECT_TYPE,EPOCH,MEAN_MOTION,ECCENTRICITY,INCLINATION,RA_OF_ASC_NODE,ARG_OF_PERICENTER,MEAN_ANOMALY,BSTAR,MEAN_MOTION_DOT,MEAN_MOTION_DDOT,TLE_LINE0,TLE_LINE1,TLE_LINE2,SEMIMAJOR_AXIS,PERIOD,APOGEE,PERIGEE,DECAYED
52680.0,STARLINK-3774,PAYLOAD,2024-03-31 08:58:22,15.1048575,0.000157,53.2163,83.6941,96.1346,263.9826,5.0028e-05,5.4e-06,0.0,0 STARLINK-3774,1 52680U 22053AA  24091.37386765  .00000540  00000-0  50028-4 0  9992,2 52680  53.2163  83.6941 0001570  96.1346 263.9826 15.10485750104227,6912.855,95.334,535.805,533.634,0.0
52680.0,STARLINK-3774,PAYLOAD,2024-03-31 16:54:47,15.10472683,0.000163,53.2173,82.2068,84.799,275.3188,-5.5548e-06,-3.85e-06,0.0,0 STARLINK-3774,1 52680U 22053AA  24091.70471869 -.00000385  00000-0 -55548-5 0  9991,2 52680  53.2173  82.2068 0001630  84.7990 275.3188 15.10472683103866,6912.894,95.334,535.886,533.633,0.0
52680.0,STARLINK-3774,PAYLOAD,2024-04-01 08:47:36,15.10475,0.0001593,53.2164,79.2274,92.3035,267.814,2.1113e-05,5.9e-07,0.0,0 STARLINK-3774,1 52680U 22053AA  24092.36640008  .00000059  00000-0  21113-4 0  9993,2 52680  53.2164  79.2274 0001593  92.3035 267.8140 15.10475000104371,6912.887,95.334,535.854,533.651,0.0
52680.0,STARLINK-3774,PAYLOAD,2024-04-01 16:44:01,15.10478794,0.0001577,53.2171,77.7388,93.0579,267.0595,6.5907e-05,8.05e-06,0.0,0 STARLINK-3774,1 52680U 22053AA  24092.69723687  .00000805  00000-0  65907-4 0  9992,2 52680  53.2171  77.7388 0001577  93.0579 267.0595 15.10478794104011,6912.876,95.334,535.831,533.651,0.0
52680.0,STARLINK-3774,PAYLOAD,2024-04-02 08:36:49,15.1049225,0.0001534,53.2175,74.7603,94.0112,266.1056,0.00013398,1.939e-05,0.0,0 STARLINK-3774,1 52680U 22053AA  24093.35890686  .00001939  00000-0  13398-3 0  9995,2 52680  53.2175  74.7603 0001534  94.0112 266.1056 15.10492250104115,6912.835,95.333,535.76,533.639,0.0
52680.0,STARLINK-3774,PAYLOAD,2024-04-02 22:54:23,15.10469444,0.0001564,53.2174,72.0807,86.4996,273.6176,6.9135e-05,8.58e-06,0.0,0 STARLINK-3774,1 52680U 22053AA  24093.95443786  .00000858  00000-0  69135-4 0  9996,2 52680  53.2174  72.0807 0001564  86.4996 273.6176 15.10469444104619,6912.904,95.335,535.85,533.688,0.0
52680.0,STARLINK-3774,PAYLOAD,2024-04-03 05:15:27,15.10511682,0.0001176,53.2176,70.8889,87.7325,272.3802,0.00039779,6.342e-05,0.0,0 STARLINK-3774,1 52680U 22053AA  24094.21907310  .00006342  00000-0  39779-3 0  9998,2 52680  53.2176  70.8889 0001176  87.7325 272.3802 15.10511682104249,6912.775,95.332,535.453,533.827,0.0
52680.0,STARLINK-3774,PAYLOAD,2024-04-03 14:47:09,15.10503033,0.0001249,53.2175,69.1025,84.4311,275.6825,0.00024514,3.794e-05,0.0,0 STARLINK-3774,1 52680U 22053AA  24094.61608593  .00003794  00000-0  24514-3 0  9992,2 52680  53.2175  69.1025 0001249  84.4311 275.6825 15.10503033104715,6912.802,95.332,535.53,533.803,0.0
52680.0,STARLINK-3774,PAYLOAD,2024-04-03 21:08:17,15.10498622,0.0001569,53.2193,67.9185,77.1176,282.9992,0.00018327,2.761e-05,0.0,0 STARLINK-3774,1 52680U 22053AA  24094.88076251  .00002761  00000-0  18327-3 0  9999,2 52680  53.2193  67.9185 0001569  77.1176 282.9992 15.10498622104343,6912.815,95.333,535.765,533.596,0.0
52680.0,STARLINK-3774,PAYLOAD,2024-04-03 22:43:34,15.10502859,0.0002137,53.2182,67.614,89.4597,270.6641,0.0001395,2.032e-05,0.0,0 STARLINK-3774,1 52680U 22053AA  24094.94692831  .00002032  00000-0  13950-3 0  9992,2 52680  53.2182  67.6140 0002137  89.4597 270.6641 15.10502859104763,6912.802,95.332,536.145,533.19,0.0
52680.0,STARLINK-3774,PAYLOAD,2024-04-04 05:04:42,15.10492966,0.0001323,53.2183,66.4246,101.3649,258.7492,5.6892e-05,6.55e-06,0.0,0 STARLINK-3774,1 52680U 22053AA  24095.21160456  .00000655  00000-0  56892-4 0  9998,2 52680  53.2183  66.4246 0001323 101.3649 258.7492 15.10492966104393,6912.833,95.333,535.612,533.783,0.0
52680.0,STARLINK-3774,PAYLOAD,2024-04-04 14:36:31,15.10401171,0.0001605,53.2184,64.6377,85.0211,275.0965,-0.0006983,-0.00011874,0.0,0 STARLINK-3774,1 52680U 22053AA  24095.60870275 -.00011874  00000-0 -69830-3 0  9990,2 52680  53.2184  64.6377 0001605  85.0211 275.0965 15.10401171104862,6913.113,95.339,536.087,533.868,0.0
52680.0,STARLINK-3774,PAYLOAD,2024-04-05 09:40:39,15.09919784,0.000101,53.2165,61.0647,109.5446,250.5656,-0.0042679,-0.00069582,0.0,0 STARLINK-3774,1 52680U 22053AA  24096.40323820 -.00069582  00000-0 -42679-2 0  9998,2 52680  53.2165  61.0647 0001010 109.5446 250.5656 15.09919784104579,6914.582,95.369,537.145,535.749,0.0
52680.0,STARLINK-3774,PAYLOAD,2024-04-05 14:26:43,15.0982763,0.0001057,53.2183,60.1736,68.146,291.9645,-0.0050121,-0.00081325,0.0,0 STARLINK-3774,1 52680U 22053AA  24096.60188935 -.00081325  00000-0 -50121-2 0  9996,2 52680  53.2183  60.1736 0001057  68.1460 291.9645 15.09827630105010,6914.863,95.375,537.459,535.997,0.0
52680.0,STARLINK-3774,PAYLOAD,2024-04-06 04:45:05,15.09458403,0.0001281,53.2176,57.4983,102.121,257.9926,-0.006834,-0.00109239,0.0,0 STARLINK-3774,1 52680U 22053AA  24097.19797875 -.00109239  00000-0 -68340-2 0  9997,2 52680  53.2176  57.4983 0001281 102.1210 257.9926 15.09458403104691,6915.991,95.398,538.742,536.97,0.0
52680.0,STARLINK-3774,PAYLOAD,2024-04-06 14:00:01,15.08842512,0.0001152,53.2159,55.7644,105.0615,190.629,-0.0013426,-0.00021593,0.0,0 STARLINK-3774,1 52680U 22053AA  24097.58334491 -.00021593  00000-0 -13426-2 0  9992,2 52680  53.2159  55.7644 0001152 105.0615 190.6290 15.08842512104756,6917.873,95.437,540.535,538.941,0.0
52680.0,STARLINK-3774,PAYLOAD,2024-04-06 22:00:00,15.08846948,0.0001265,53.216,54.2677,108.1795,199.0869,0.00042995,6.563e-05,0.0,0 STARLINK-3774,1 52680U 22053AA  24097.91667824  .00006563  00000-0  42995-3 0  9990,2 52680  53.2160  54.2677 0001265 108.1795 199.0869 15.08846948  5871,6917.859,95.437,540.599,538.849,0.0
52680.0,STARLINK-3774,PAYLOAD,2024-04-07 14:00:01,15.08832521,0.0001159,53.2161,51.2752,96.6048,233.8474,-0.00042031,-6.969e-05,0.0,0 STARLINK-3774,1 52680U 22053AA  24098.58334491 -.00006969  00000-0 -42031-3 0  9998,2 52680  53.2161  51.2752 0001159  96.6048 233.8474 15.08832521  5878,6917.903,95.438,540.57,538.966,0.0
52680.0,STARLINK-3774,PAYLOAD,2024-04-07 22:00:00,15.08857237,0.0001238,53.2164,49.7785,102.8453,239.1886,0.00054447,8.392e-05,0.0,0 STARLINK-3774,1 52680U 22053AA  24098.91667824  .00008392  00000-0  54447-3 0  9998,2 52680  53.2164  49.7785 0001238 102.8453 239.1886 15.08857237104953,6917.828,95.436,540.549,538.836,0.0
52680.0,STARLINK-3774,PAYLOAD,2024-04-08 14:00:01,15.08837875,0.0001275,53.2167,46.7859,92.4559,272.7899,0.00022422,3.282e-05,0.0,0 STARLINK-3774,1 52680U 22053AA  24099.58334491  .00003282  00000-0  22422-3 0  9994,2 52680  53.2167  46.7859 0001275  92.4559 272.7899 15.08837875105052,6917.887,95.438,540.634,538.87,0.0
52680.0,STARLINK-3774,PAYLOAD,2024-04-09 00:00:02,15.08890618,0.0001342,53.217,44.9158,88.1595,21.6344,-0.0049041,-0.00077603,0.0,0 STARLINK-3774,1 52680U 22053AA  24100.00002315 -.00077603  00000-0 -49041-2 0  9996,2 52680  53.2170  44.9158 0001342  88.1595  21.6344 15.08890618  5694,6917.726,95.434,540.519,538.662,0.0
52680.0,STARLINK-3774,PAYLOAD,2024-04-09 14:00:01,15.0882153,0.0001264,53.2175,42.2968,80.9897,319.0527,0.00066602,0.00010322,0.0,0 STARLINK-3774,1 52680U 22053AA  24100.58334491  .00010322  00000-0  66602-3 0  9998,2 52680  53.2175  42.2968 0001264  80.9897 319.0527 15.08821530  5770,6917.937,95.439,540.676,538.927,0.0
52680.0,STARLINK-3774,PAYLOAD,2024-04-09 22:00:00,15.08850819,0.0001309,53.2177,40.8007,84.4419,327.171,-0.00038411,-6.398e-05,0.0,0 STARLINK-3774,1 52680U 22053AA  24100.91667824 -.00006398  00000-0 -38411-3 0  9991,2 52680  53.2177  40.8007 0001309  84.4419 327.1710 15.08850819105259,6917.847,95.437,540.618,538.807,0.0
52680.0,STARLINK-3774,PAYLOAD,2024-04-10 05:43:17,15.08847861,0.0001431,53.2182,39.3568,89.3022,270.8134,4.6866e-05,4.58e-06,0.0,0 STARLINK-3774,1 52680U 22053AA  24101.23839696  .00000458  00000-0  46866-4 0  9998,2 52680  53.2182  39.3568 0001431  89.3022 270.8134 15.08847861105718,6917.856,95.437,540.711,538.731,0.0
52680.0,STARLINK-3774,PAYLOAD,2024-04-10 23:12:32,15.08834588,0.0001478,53.2167,36.0831,114.6566,245.458,-5.1158e-05,-1.102e-05,0.0,0 STARLINK-3774,1 52680U 22053AA  24101.96704365 -.00001102  00000-0 -51158-4 0  9991,2 52680  53.2167  36.0831 0001478 114.6566 245.4580 15.08834588105821,6917.897,95.438,540.784,538.739,0.0
52680.0,STARLINK-3774,PAYLOAD,2024-04-11 02:23:18,15.08837745,0.0001192,53.2171,35.4902,95.0369,265.0759,2.0566e-05,3.9e-07,0.0,0 STARLINK-3774,1 52680U 22053AA  24102.09952515  .00000039  00000-0  20566-4 0  9993,2 52680  53.2171  35.4902 0001192  95.0369 265.0759 15.08837745105435,6917.887,95.438,540.577,538.928,0.0
52680.0,STARLINK-3774,PAYLOAD,2024-04-11 11:55:37,15.08839799,0.0001313,53.2184,33.707,94.4467,265.6675,1.0077e-05,-1.28e-06,0.0,0 STARLINK-3774,1 52680U 22053AA  24102.49696325 -.00000128  00000-0  10077-4 0  9997,2 52680  53.2184  33.7070 0001313  94.4467 265.6675 15.08839799105909,6917.881,95.438,540.654,538.838,0.0
52680.0,STARLINK-3774,PAYLOAD,2024-04-12 02:14:06,15.08839393,0.0001323,53.2182,31.0331,91.1343,268.9801,0.00014509,2.022e-05,0.0,0 STARLINK-3774,1 52680U 22053AA  24103.09312592  .00002022  00000-0  14509-3 0  9992,2 52680  53.2182  31.0331 0001323  91.1343 268.9801 15.08839393105992,6917.882,95.438,540.662,538.832,0.0
52680.0,STARLINK-3774,PAYLOAD,2024-04-12 22:54:07,15.08838914,0.0001338,53.2175,27.1674,99.268,260.8463,8.389e-05,1.047e-05,0.0,0 STARLINK-3774,1 52680U 22053AA  24103.95424802  .00001047  00000-0  83890-4 0  9991,2 52680  53.2175  27.1674 0001338  99.2680 260.8463 15.08838914106128,6917.884,95.438,540.674,538.823,0.0
52680.0,STARLINK-3774,PAYLOAD,2024-04-13 00:29:30,15.08839393,0.0001344,53.2177,26.8702,99.1878,260.9266,8.802e-05,1.113e-05,0.0,0 STARLINK-3774,1 52680U 22053AA  24104.02048785  .00001113  00000-0  88020-4 0  9996,2 52680  53.2177  26.8702 0001344  99.1878 260.9266 15.08839393105722,6917.882,95.438,540.677,538.817,0.0
